{"type": "FeatureCollection", "features": [{"type": "Feature", "properties": {"node_id": "664286830"}, "geometry": {"type": "Point", "coordinates": [-76.6694678, 39.418665]}}, {"type": "Feature", "properties": {"node_id": "9768381905"}, "geometry": {"type": "Point", "coordinates": [-76.6693374, 39.4187001]}}, {"type": "Feature", "properties": {"node_id": "37674488"}, "geometry": {"type": "Point", "coordinates": [-76.4274684, 39.3801998]}}, {"type": "Feature", "properties": {"node_id": "37675106"}, "geometry": {"type": "Point", "coordinates": [-76.4276421, 39.3802827]}}, {"type": "Feature", "properties": {"node_id": "37592041"}, "geometry": {"type": "Point", "coordinates": [-76.5123688, 39.2999509]}}, {"type": "Feature", "properties": {"node_id": "37561398"}, "geometry": {"type": "Point", "coordinates": [-76.7572236, 39.4035515]}}, {"type": "Feature", "properties": {"node_id": "37572454"}, "geometry": {"type": "Point", "coordinates": [-76.630493, 39.4134464]}}, {"type": "Feature", "properties": {"node_id": "37635415"}, "geometry": {"type": "Point", "coordinates": [-76.6410852, 39.4748309]}}, {"type": "Feature", "properties": {"node_id": "37561393"}, "geometry": {"type": "Point", "coordinates": [-76.7490616, 39.397417]}}, {"type": "Feature", "properties": {"node_id": "37572259"}, "geometry": {"type": "Point", "coordinates": [-76.6274636, 39.3824953]}}, {"type": "Feature", "properties": {"node_id": "37643009"}, "geometry": {"type": "Point", "coordinates": [-76.6165695, 39.4204909]}}, {"type": "Feature", "properties": {"node_id": "49473594"}, "geometry": {"type": "Point", "coordinates": [-76.6916947, 39.3487054]}}, {"type": "Feature", "properties": {"node_id": "49473596"}, "geometry": {"type": "Point", "coordinates": [-76.6918369, 39.3487977]}}, {"type": "Feature", "properties": {"node_id": "37585402"}, "geometry": {"type": "Point", "coordinates": [-76.7785489, 39.36131]}}, {"type": "Feature", "properties": {"node_id": "37585403"}, "geometry": {"type": "Point", "coordinates": [-76.7786922, 39.3613634]}}, {"type": "Feature", "properties": {"node_id": "37674558"}, "geometry": {"type": "Point", "coordinates": [-76.4047074, 39.3975877]}}, {"type": "Feature", "properties": {"node_id": "37675144"}, "geometry": {"type": "Point", "coordinates": [-76.4047985, 39.3977032]}}, {"type": "Feature", "properties": {"node_id": "37682337"}, "geometry": {"type": "Point", "coordinates": [-76.7312259, 39.2928801]}}, {"type": "Feature", "properties": {"node_id": "37561340"}, "geometry": {"type": "Point", "coordinates": [-76.7267384, 39.3783728]}}, {"type": "Feature", "properties": {"node_id": "37652857"}, "geometry": {"type": "Point", "coordinates": [-76.4311837, 39.4353222]}}]}