{"type": "FeatureCollection", "features": [{"type": "Feature", "properties": {}, "geometry": {"type": "LineString", "coordinates": [[-76.5076714, 39.2316281], [-76.5079809, 39.2315053], [-76.5085307, 39.2311861], [-76.5088526, 39.2310275], [-76.509303, 39.2308381]]}}, {"type": "Feature", "properties": {}, "geometry": {"type": "LineString", "coordinates": [[-76.509303, 39.2308381], [-76.5097266, 39.2306823], [-76.5102005, 39.2304312], [-76.5110718, 39.2299058]]}}, {"type": "Feature", "properties": {}, "geometry": {"type": "LineString", "coordinates": [[-76.5110718, 39.2299058], [-76.5114261, 39.2300422], [-76.5114542, 39.2300396], [-76.5115088, 39.2300087], [-76.5115225, 39.2300009]]}}, {"type": "Feature", "properties": {}, "geometry": {"type": "LineString", "coordinates": [[-76.5115225, 39.2300009], [-76.5115337, 39.230013], [-76.511668, 39.2301459]]}}, {"type": "Feature", "properties": {}, "geometry": {"type": "LineString", "coordinates": [[-76.511668, 39.2301459], [-76.5114756, 39.2302617]]}}, {"type": "Feature", "properties": {}, "geometry": {"type": "LineString", "coordinates": [[-76.5114756, 39.2302617], [-76.5113554, 39.2303378]]}}, {"type": "Feature", "properties": {}, "geometry": {"type": "LineString", "coordinates": [[-76.5113554, 39.2303378], [-76.5113021, 39.2303702]]}}, {"type": "Feature", "properties": {}, "geometry": {"type": "LineString", "coordinates": [[-76.5113021, 39.2303702], [-76.5112625, 39.2303942], [-76.5109759, 39.2305667], [-76.5108388, 39.2306333], [-76.5107668, 39.2306578]]}}, {"type": "Feature", "properties": {}, "geometry": {"type": "LineString", "coordinates": [[-76.5107668, 39.2306578], [-76.5107237, 39.2306724], [-76.5106877, 39.2306794]]}}, {"type": "Feature", "properties": {}, "geometry": {"type": "LineString", "coordinates": [[-76.5106877, 39.2306794], [-76.5106216, 39.2306922]]}}, {"type": "Feature", "properties": {}, "geometry": {"type": "LineString", "coordinates": [[-76.5106216, 39.2306922], [-76.5104833, 39.2307191]]}}, {"type": "Feature", "properties": {}, "geometry": {"type": "LineString", "coordinates": [[-76.5104833, 39.2307191], [-76.5103189, 39.230751]]}}, {"type": "Feature", "properties": {}, "geometry": {"type": "LineString", "coordinates": [[-76.5103189, 39.230751], [-76.5102542, 39.2307636], [-76.5100913, 39.2307971]]}}, {"type": "Feature", "properties": {}, "geometry": {"type": "LineString", "coordinates": [[-76.5100913, 39.2307971], [-76.5100542, 39.2308047]]}}, {"type": "Feature", "properties": {}, "geometry": {"type": "LineString", "coordinates": [[-76.5100542, 39.2308047], [-76.5098558, 39.2308456]]}}, {"type": "Feature", "properties": {}, "geometry": {"type": "LineString", "coordinates": [[-76.5098558, 39.2308456], [-76.5098212, 39.2308527], [-76.5096042, 39.2309002]]}}, {"type": "Feature", "properties": {}, "geometry": {"type": "LineString", "coordinates": [[-76.5096042, 39.2309002], [-76.5092543, 39.2310119], [-76.5089963, 39.2311157], [-76.5087482, 39.2312222], [-76.5085486, 39.2313273], [-76.5083589, 39.231436], [-76.5079685, 39.2316721], [-76.507555, 39.23192], [-76.507165, 39.232168], [-76.5069937, 39.2322845], [-76.5068364, 39.2324091], [-76.5067231, 39.2325154], [-76.506625, 39.232624], [-76.5065133, 39.2327558], [-76.5064191, 39.2328941], [-76.5063388, 39.2330287], [-76.506275, 39.233166], [-76.5062383, 39.2332613], [-76.5062105, 39.2333521], [-76.5061952, 39.2334324], [-76.5061923, 39.2335157], [-76.5061952, 39.2336283], [-76.506218, 39.233742], [-76.506265, 39.233877], [-76.5063264, 39.2339963], [-76.506408, 39.234118], [-76.5064879, 39.2341971], [-76.5065841, 39.2342757], [-76.5067624, 39.2344047], [-76.5069587, 39.2345366], [-76.5071625, 39.2346793], [-76.507228, 39.234746], [-76.507259, 39.234797], [-76.507274, 39.234854], [-76.5072653, 39.2349081], [-76.5072481, 39.2349667], [-76.5071636, 39.2351022]]}}, {"type": "Feature", "properties": {}, "geometry": {"type": "LineString", "coordinates": [[-76.5071636, 39.2351022], [-76.5073883, 39.2352459], [-76.5075549, 39.235367], [-76.507682, 39.235493], [-76.507733, 39.235541], [-76.507816, 39.235615], [-76.507902, 39.2357], [-76.507982, 39.235793], [-76.508086, 39.235935]]}}, {"type": "Feature", "properties": {}, "geometry": {"type": "LineString", "coordinates": [[-76.508086, 39.235935], [-76.509802, 39.238407]]}}, {"type": "Feature", "properties": {}, "geometry": {"type": "LineString", "coordinates": [[-76.509802, 39.238407], [-76.510176, 39.238947], [-76.510713, 39.23972], [-76.511532, 39.240898], [-76.5117626, 39.2412303], [-76.5117833, 39.2412601], [-76.5118037, 39.2412895]]}}, {"type": "Feature", "properties": {}, "geometry": {"type": "LineString", "coordinates": [[-76.5118037, 39.2412895], [-76.512011, 39.241598], [-76.512341, 39.242076], [-76.5129959, 39.2429999]]}}, {"type": "Feature", "properties": {}, "geometry": {"type": "LineString", "coordinates": [[-76.5129959, 39.2429999], [-76.5128246, 39.2430598]]}}, {"type": "Feature", "properties": {}, "geometry": {"type": "LineString", "coordinates": [[-76.5128246, 39.2430598], [-76.51232, 39.243173]]}}, {"type": "Feature", "properties": {}, "geometry": {"type": "LineString", "coordinates": [[-76.51232, 39.243173], [-76.5110241, 39.2434561]]}}, {"type": "Feature", "properties": {}, "geometry": {"type": "LineString", "coordinates": [[-76.5110241, 39.2434561], [-76.510327, 39.243613]]}}, {"type": "Feature", "properties": {}, "geometry": {"type": "LineString", "coordinates": [[-76.510327, 39.243613], [-76.510207, 39.243783], [-76.510157, 39.243837], [-76.510101, 39.24389]]}}, {"type": "Feature", "properties": {}, "geometry": {"type": "LineString", "coordinates": [[-76.510101, 39.24389], [-76.509996, 39.243976], [-76.509875, 39.244053], [-76.509769, 39.244114]]}}, {"type": "Feature", "properties": {}, "geometry": {"type": "LineString", "coordinates": [[-76.509769, 39.244114], [-76.5091962, 39.2444484], [-76.5091296, 39.2445175]]}}, {"type": "Feature", "properties": {}, "geometry": {"type": "LineString", "coordinates": [[-76.5091296, 39.2445175], [-76.5087089, 39.2447245]]}}, {"type": "Feature", "properties": {}, "geometry": {"type": "LineString", "coordinates": [[-76.5087089, 39.2447245], [-76.5086005, 39.244779]]}}, {"type": "Feature", "properties": {}, "geometry": {"type": "LineString", "coordinates": [[-76.5086005, 39.244779], [-76.5085101, 39.2448244], [-76.5083683, 39.2449007]]}}, {"type": "Feature", "properties": {}, "geometry": {"type": "LineString", "coordinates": [[-76.5083683, 39.2449007], [-76.5083197, 39.2449337], [-76.5081408, 39.2450346], [-76.5080712, 39.245091], [-76.50801, 39.2451566], [-76.507989, 39.245185]]}}, {"type": "Feature", "properties": {}, "geometry": {"type": "LineString", "coordinates": [[-76.507989, 39.245185], [-76.5079471, 39.2452415]]}}, {"type": "Feature", "properties": {}, "geometry": {"type": "LineString", "coordinates": [[-76.5079471, 39.2452415], [-76.50791, 39.2452263], [-76.5078688, 39.2452198], [-76.5078464, 39.2452213], [-76.507827, 39.2452226], [-76.5077878, 39.2452343]]}}, {"type": "Feature", "properties": {}, "geometry": {"type": "LineString", "coordinates": [[-76.5077878, 39.2452343], [-76.5077564, 39.2452527], [-76.5077324, 39.2452769], [-76.5077175, 39.2453052], [-76.5077128, 39.2453355]]}}, {"type": "Feature", "properties": {}, "geometry": {"type": "LineString", "coordinates": [[-76.5077128, 39.2453355], [-76.5077224, 39.2453745], [-76.5077487, 39.2454086]]}}, {"type": "Feature", "properties": {}, "geometry": {"type": "LineString", "coordinates": [[-76.5077487, 39.2454086], [-76.5077446, 39.2454329], [-76.5077232, 39.2454994], [-76.5077218, 39.2455099]]}}, {"type": "Feature", "properties": {}, "geometry": {"type": "LineString", "coordinates": [[-76.5077218, 39.2455099], [-76.5077131, 39.245574], [-76.5077516, 39.2456329]]}}, {"type": "Feature", "properties": {}, "geometry": {"type": "LineString", "coordinates": [[-76.5077516, 39.2456329], [-76.5077876, 39.2457944], [-76.5078466, 39.2460312], [-76.507905, 39.246257], [-76.5079358, 39.2463747]]}}, {"type": "Feature", "properties": {}, "geometry": {"type": "LineString", "coordinates": [[-76.5079358, 39.2463747], [-76.5080509, 39.2468149]]}}, {"type": "Feature", "properties": {}, "geometry": {"type": "LineString", "coordinates": [[-76.5080509, 39.2468149], [-76.5080845, 39.2469377]]}}, {"type": "Feature", "properties": {}, "geometry": {"type": "LineString", "coordinates": [[-76.5080845, 39.2469377], [-76.5081051, 39.2470137]]}}, {"type": "Feature", "properties": {}, "geometry": {"type": "LineString", "coordinates": [[-76.5081051, 39.2470137], [-76.508156, 39.247201], [-76.508204, 39.247356], [-76.508254, 39.247457], [-76.50834, 39.247593], [-76.508488, 39.247788], [-76.508686, 39.248056], [-76.508936, 39.248441], [-76.509056, 39.248651], [-76.509074, 39.248682], [-76.509197, 39.248904], [-76.509297, 39.249214], [-76.509375, 39.249502], [-76.509437, 39.249936], [-76.509493, 39.250445], [-76.509537, 39.251076]]}}, {"type": "Feature", "properties": {}, "geometry": {"type": "LineString", "coordinates": [[-76.509537, 39.251076], [-76.5095505, 39.2512936]]}}, {"type": "Feature", "properties": {}, "geometry": {"type": "LineString", "coordinates": [[-76.5095505, 39.2512936], [-76.5095538, 39.2513475]]}}, {"type": "Feature", "properties": {}, "geometry": {"type": "LineString", "coordinates": [[-76.5095538, 39.2513475], [-76.5095556, 39.2514033]]}}, {"type": "Feature", "properties": {}, "geometry": {"type": "LineString", "coordinates": [[-76.5095556, 39.2514033], [-76.509557, 39.251446], [-76.50957, 39.251585], [-76.509592, 39.251741], [-76.50964, 39.251882], [-76.5096877, 39.2519779]]}}, {"type": "Feature", "properties": {}, "geometry": {"type": "LineString", "coordinates": [[-76.5096877, 39.2519779], [-76.5096966, 39.2519957]]}}, {"type": "Feature", "properties": {}, "geometry": {"type": "LineString", "coordinates": [[-76.5096966, 39.2519957], [-76.5097147, 39.2520321]]}}, {"type": "Feature", "properties": {}, "geometry": {"type": "LineString", "coordinates": [[-76.5097147, 39.2520321], [-76.5098001, 39.252187], [-76.509921, 39.252327]]}}, {"type": "Feature", "properties": {}, "geometry": {"type": "LineString", "coordinates": [[-76.509921, 39.252327], [-76.510144, 39.252562], [-76.510395, 39.252808], [-76.510788, 39.253176], [-76.5110637, 39.2534342]]}}, {"type": "Feature", "properties": {}, "geometry": {"type": "LineString", "coordinates": [[-76.5110637, 39.2534342], [-76.511202, 39.253585], [-76.511325, 39.253746], [-76.511418, 39.253879], [-76.511511, 39.254063], [-76.5116305, 39.2543693], [-76.5117765, 39.2547475], [-76.5120093, 39.2553347]]}}, {"type": "Feature", "properties": {}, "geometry": {"type": "LineString", "coordinates": [[-76.5120093, 39.2553347], [-76.512023, 39.2553693]]}}, {"type": "Feature", "properties": {}, "geometry": {"type": "LineString", "coordinates": [[-76.512023, 39.2553693], [-76.5120478, 39.2554395]]}}, {"type": "Feature", "properties": {}, "geometry": {"type": "LineString", "coordinates": [[-76.5120478, 39.2554395], [-76.5122491, 39.2560101], [-76.5123392, 39.2562652]]}}, {"type": "Feature", "properties": {}, "geometry": {"type": "LineString", "coordinates": [[-76.5123392, 39.2562652], [-76.5123371, 39.256335], [-76.512326, 39.2563802], [-76.5123077, 39.2564195]]}}, {"type": "Feature", "properties": {}, "geometry": {"type": "LineString", "coordinates": [[-76.5123077, 39.2564195], [-76.5123007, 39.2564344], [-76.5122734, 39.2564942], [-76.5122245, 39.2565647]]}}, {"type": "Feature", "properties": {}, "geometry": {"type": "LineString", "coordinates": [[-76.5122245, 39.2565647], [-76.5121711, 39.2566143], [-76.5119641, 39.2568058]]}}, {"type": "Feature", "properties": {}, "geometry": {"type": "LineString", "coordinates": [[-76.5119641, 39.2568058], [-76.5118899, 39.2568634], [-76.5118224, 39.2569282], [-76.5117527, 39.2570049]]}}, {"type": "Feature", "properties": {}, "geometry": {"type": "LineString", "coordinates": [[-76.5117527, 39.2570049], [-76.5116803, 39.2571063], [-76.5115026, 39.257426]]}}, {"type": "Feature", "properties": {}, "geometry": {"type": "LineString", "coordinates": [[-76.5115026, 39.257426], [-76.5114671, 39.2574937]]}}, {"type": "Feature", "properties": {}, "geometry": {"type": "LineString", "coordinates": [[-76.5114671, 39.2574937], [-76.5112807, 39.2578496], [-76.5111887, 39.2580251]]}}, {"type": "Feature", "properties": {}, "geometry": {"type": "LineString", "coordinates": [[-76.5111887, 39.2580251], [-76.5110559, 39.2582672]]}}, {"type": "Feature", "properties": {}, "geometry": {"type": "LineString", "coordinates": [[-76.5110559, 39.2582672], [-76.5109257, 39.2583727], [-76.5108374, 39.2584867]]}}, {"type": "Feature", "properties": {}, "geometry": {"type": "LineString", "coordinates": [[-76.5108374, 39.2584867], [-76.510763, 39.258577]]}}, {"type": "Feature", "properties": {}, "geometry": {"type": "LineString", "coordinates": [[-76.510763, 39.258577], [-76.5105132, 39.2589248], [-76.5104188, 39.2590302], [-76.5102226, 39.2592727]]}}, {"type": "Feature", "properties": {}, "geometry": {"type": "LineString", "coordinates": [[-76.5102226, 39.2592727], [-76.5101273, 39.2594069], [-76.5100079, 39.2595671], [-76.5098321, 39.2598029]]}}, {"type": "Feature", "properties": {}, "geometry": {"type": "LineString", "coordinates": [[-76.5098321, 39.2598029], [-76.509733, 39.259935], [-76.509707, 39.259969], [-76.5095558, 39.2601408]]}}, {"type": "Feature", "properties": {}, "geometry": {"type": "LineString", "coordinates": [[-76.5095558, 39.2601408], [-76.5094642, 39.2602585]]}}, {"type": "Feature", "properties": {}, "geometry": {"type": "LineString", "coordinates": [[-76.5094642, 39.2602585], [-76.5094054, 39.2603393]]}}, {"type": "Feature", "properties": {}, "geometry": {"type": "LineString", "coordinates": [[-76.5094054, 39.2603393], [-76.509236, 39.260572], [-76.5091413, 39.2606991]]}}, {"type": "Feature", "properties": {}, "geometry": {"type": "LineString", "coordinates": [[-76.5091413, 39.2606991], [-76.5087088, 39.2612929], [-76.508432, 39.261673]]}}, {"type": "Feature", "properties": {}, "geometry": {"type": "LineString", "coordinates": [[-76.508432, 39.261673], [-76.507977, 39.26226], [-76.507665, 39.26271], [-76.507279, 39.263238], [-76.5067851, 39.2639583]]}}, {"type": "Feature", "properties": {}, "geometry": {"type": "LineString", "coordinates": [[-76.5067851, 39.2639583], [-76.506504, 39.264393], [-76.506477, 39.264437], [-76.5061703, 39.2649195], [-76.506086, 39.265052], [-76.5057818, 39.2655636], [-76.5056513, 39.2657889], [-76.5055789, 39.2659073], [-76.5054441, 39.2661239]]}}, {"type": "Feature", "properties": {}, "geometry": {"type": "LineString", "coordinates": [[-76.5054441, 39.2661239], [-76.5053325, 39.266302], [-76.5052263, 39.2664708]]}}, {"type": "Feature", "properties": {}, "geometry": {"type": "LineString", "coordinates": [[-76.5052263, 39.2664708], [-76.5049089, 39.2670152]]}}, {"type": "Feature", "properties": {}, "geometry": {"type": "LineString", "coordinates": [[-76.5049089, 39.2670152], [-76.5047314, 39.2673177], [-76.50452, 39.267678], [-76.5041709, 39.2682448]]}}, {"type": "Feature", "properties": {}, "geometry": {"type": "LineString", "coordinates": [[-76.5041709, 39.2682448], [-76.50414, 39.268295], [-76.5041169, 39.268332]]}}, {"type": "Feature", "properties": {}, "geometry": {"type": "LineString", "coordinates": [[-76.5041169, 39.268332], [-76.504013, 39.268498], [-76.5036085, 39.2691827], [-76.5034839, 39.2693898], [-76.5034202, 39.2694957]]}}, {"type": "Feature", "properties": {}, "geometry": {"type": "LineString", "coordinates": [[-76.5034202, 39.2694957], [-76.5032438, 39.2698001], [-76.5031978, 39.2698795]]}}, {"type": "Feature", "properties": {}, "geometry": {"type": "LineString", "coordinates": [[-76.5031978, 39.2698795], [-76.5031294, 39.2699909]]}}, {"type": "Feature", "properties": {}, "geometry": {"type": "LineString", "coordinates": [[-76.5031294, 39.2699909], [-76.5030867, 39.2700619], [-76.5028188, 39.2704759]]}}, {"type": "Feature", "properties": {}, "geometry": {"type": "LineString", "coordinates": [[-76.5028188, 39.2704759], [-76.5027513, 39.270587]]}}, {"type": "Feature", "properties": {}, "geometry": {"type": "LineString", "coordinates": [[-76.5027513, 39.270587], [-76.5026306, 39.2708072], [-76.5025581, 39.2709709], [-76.5024963, 39.2711432], [-76.5024327, 39.2713582], [-76.5024037, 39.2714832]]}}, {"type": "Feature", "properties": {}, "geometry": {"type": "LineString", "coordinates": [[-76.5024037, 39.2714832], [-76.502388, 39.2716394], [-76.5023781, 39.2717842], [-76.5023781, 39.2718927], [-76.5023777, 39.2720122]]}}, {"type": "Feature", "properties": {}, "geometry": {"type": "LineString", "coordinates": [[-76.5023777, 39.2720122], [-76.5023837, 39.2721233], [-76.5023916, 39.2721934], [-76.502413, 39.272317], [-76.5024408, 39.2724353], [-76.5025294, 39.2726888]]}}, {"type": "Feature", "properties": {}, "geometry": {"type": "LineString", "coordinates": [[-76.5025294, 39.2726888], [-76.5026451, 39.2730429]]}}, {"type": "Feature", "properties": {}, "geometry": {"type": "LineString", "coordinates": [[-76.5026451, 39.2730429], [-76.5027545, 39.2733622]]}}, {"type": "Feature", "properties": {}, "geometry": {"type": "LineString", "coordinates": [[-76.5027545, 39.2733622], [-76.5031143, 39.2743896], [-76.5031244, 39.2744186]]}}, {"type": "Feature", "properties": {}, "geometry": {"type": "LineString", "coordinates": [[-76.5031244, 39.2744186], [-76.5032597, 39.2748068]]}}, {"type": "Feature", "properties": {}, "geometry": {"type": "LineString", "coordinates": [[-76.5032597, 39.2748068], [-76.503508, 39.2755192]]}}, {"type": "Feature", "properties": {}, "geometry": {"type": "LineString", "coordinates": [[-76.503508, 39.2755192], [-76.5043186, 39.2779198], [-76.5045733, 39.2786741]]}}, {"type": "Feature", "properties": {}, "geometry": {"type": "LineString", "coordinates": [[-76.5045733, 39.2786741], [-76.504605, 39.2787679]]}}, {"type": "Feature", "properties": {}, "geometry": {"type": "LineString", "coordinates": [[-76.504605, 39.2787679], [-76.5048862, 39.2795636]]}}, {"type": "Feature", "properties": {}, "geometry": {"type": "LineString", "coordinates": [[-76.5048862, 39.2795636], [-76.5049592, 39.2797703], [-76.5052522, 39.2805994]]}}, {"type": "Feature", "properties": {}, "geometry": {"type": "LineString", "coordinates": [[-76.5052522, 39.2805994], [-76.505282, 39.2806875]]}}, {"type": "Feature", "properties": {}, "geometry": {"type": "LineString", "coordinates": [[-76.505282, 39.2806875], [-76.5053509, 39.2809061], [-76.5053972, 39.2810534], [-76.5054204, 39.2811273], [-76.5054464, 39.2812116]]}}, {"type": "Feature", "properties": {}, "geometry": {"type": "LineString", "coordinates": [[-76.5054464, 39.2812116], [-76.5055221, 39.2814359], [-76.5056053, 39.2816781]]}}, {"type": "Feature", "properties": {}, "geometry": {"type": "LineString", "coordinates": [[-76.5056053, 39.2816781], [-76.505887, 39.282556], [-76.505998, 39.282891], [-76.506184, 39.2833502]]}}, {"type": "Feature", "properties": {}, "geometry": {"type": "LineString", "coordinates": [[-76.506184, 39.2833502], [-76.5062787, 39.2836819]]}}, {"type": "Feature", "properties": {}, "geometry": {"type": "LineString", "coordinates": [[-76.5062787, 39.2836819], [-76.5063047, 39.2837728]]}}, {"type": "Feature", "properties": {}, "geometry": {"type": "LineString", "coordinates": [[-76.5063047, 39.2837728], [-76.5063414, 39.2839449]]}}, {"type": "Feature", "properties": {}, "geometry": {"type": "LineString", "coordinates": [[-76.5063414, 39.2839449], [-76.5061767, 39.2839447], [-76.5060039, 39.2839188], [-76.505808, 39.2839359], [-76.5057671, 39.2839614], [-76.5058167, 39.2841945], [-76.5058805, 39.2842245], [-76.5059508, 39.284243], [-76.5060712, 39.2842322], [-76.5063793, 39.2841899]]}}, {"type": "Feature", "properties": {}, "geometry": {"type": "LineString", "coordinates": [[-76.5063793, 39.2841899], [-76.5064048, 39.2844198], [-76.5064169, 39.2846529], [-76.506413, 39.2849866]]}}, {"type": "Feature", "properties": {}, "geometry": {"type": "LineString", "coordinates": [[-76.506413, 39.2849866], [-76.506397, 39.28521], [-76.506371, 39.285387], [-76.5063208, 39.2856238], [-76.5062817, 39.2857783], [-76.506203, 39.2860509], [-76.506092, 39.2863321]]}}, {"type": "Feature", "properties": {}, "geometry": {"type": "LineString", "coordinates": [[-76.506092, 39.2863321], [-76.5060267, 39.2864882], [-76.5058788, 39.2867992], [-76.5057822, 39.2869493], [-76.5056789, 39.2871439], [-76.5055664, 39.2873609], [-76.5054765, 39.2875133]]}}, {"type": "Feature", "properties": {}, "geometry": {"type": "LineString", "coordinates": [[-76.5054765, 39.2875133], [-76.5053524, 39.2877714], [-76.5051767, 39.2880815]]}}, {"type": "Feature", "properties": {}, "geometry": {"type": "LineString", "coordinates": [[-76.5051767, 39.2880815], [-76.505028, 39.288354]]}}, {"type": "Feature", "properties": {}, "geometry": {"type": "LineString", "coordinates": [[-76.505028, 39.288354], [-76.5049677, 39.2884625], [-76.504835, 39.288701]]}}, {"type": "Feature", "properties": {}, "geometry": {"type": "LineString", "coordinates": [[-76.504835, 39.288701], [-76.504509, 39.289296], [-76.50444, 39.289445], [-76.504414, 39.289506], [-76.5042174, 39.289863]]}}, {"type": "Feature", "properties": {}, "geometry": {"type": "LineString", "coordinates": [[-76.5042174, 39.289863], [-76.5041253, 39.2900456], [-76.5040458, 39.2902652], [-76.5039512, 39.2905367], [-76.5038515, 39.2908462], [-76.5034478, 39.2921242], [-76.5032167, 39.2928256]]}}, {"type": "Feature", "properties": {}, "geometry": {"type": "LineString", "coordinates": [[-76.5032167, 39.2928256], [-76.5029874, 39.293657], [-76.5029546, 39.293823], [-76.5029294, 39.2939626], [-76.5029155, 39.2941022], [-76.5029054, 39.2942799], [-76.5029054, 39.2944459], [-76.5029117, 39.2946294], [-76.5029458, 39.2950482], [-76.5029562, 39.2952029], [-76.5029723, 39.2954417], [-76.5029836, 39.2956672], [-76.502976, 39.2958751], [-76.5029521, 39.2960909], [-76.502913, 39.2963067], [-76.5028739, 39.2964677], [-76.502836, 39.2965966], [-76.5027818, 39.296745], [-76.5026101, 39.2971986]]}}, {"type": "Feature", "properties": {}, "geometry": {"type": "LineString", "coordinates": [[-76.5026101, 39.2971986], [-76.5023689, 39.2978248], [-76.5021926, 39.2983034], [-76.5018646, 39.2991934], [-76.501413, 39.3003844]]}}, {"type": "Feature", "properties": {}, "geometry": {"type": "LineString", "coordinates": [[-76.501413, 39.3003844], [-76.5010333, 39.3013977], [-76.5008201, 39.3020684], [-76.5007255, 39.3023691], [-76.5006397, 39.3026804], [-76.5005754, 39.3030611], [-76.5005403, 39.3034379]]}}, {"type": "Feature", "properties": {}, "geometry": {"type": "LineString", "coordinates": [[-76.5005403, 39.3034379], [-76.5004856, 39.3037881], [-76.5004423, 39.304118], [-76.5004178, 39.304458], [-76.5004067, 39.3047878], [-76.5004065, 39.305195], [-76.5004341, 39.3056109], [-76.5004802, 39.3060546], [-76.5005563, 39.3065197], [-76.5006501, 39.3069426], [-76.5007652, 39.307305], [-76.5008801, 39.3076477], [-76.5010081, 39.3079604], [-76.501181, 39.3083295], [-76.5021236, 39.3102169], [-76.5023147, 39.3106039], [-76.5023899, 39.310781], [-76.5024302, 39.3109377], [-76.5024595, 39.3110715], [-76.5024704, 39.3112329], [-76.5024704, 39.311358], [-76.502449, 39.3115334], [-76.5024184, 39.3116914], [-76.5023836, 39.3118092], [-76.502324, 39.3119529], [-76.5022541, 39.312081], [-76.5021439, 39.3122471], [-76.5020456, 39.3123749], [-76.5019298, 39.312501], [-76.5017738, 39.3126314], [-76.5016295, 39.3127441], [-76.5014726, 39.31284], [-76.5013268, 39.3129236], [-76.501118, 39.3130191], [-76.5009486, 39.3130785], [-76.5007803, 39.3131306], [-76.5006117, 39.3131734], [-76.5004024, 39.313214], [-76.5002138, 39.3132313], [-76.4999676, 39.3132485], [-76.4959402, 39.3134933], [-76.4953987, 39.3135333], [-76.4947924, 39.3136023], [-76.4942874, 39.31368], [-76.4939, 39.3137582], [-76.4934576, 39.3138753], [-76.4929987, 39.314014], [-76.4926102, 39.3141636], [-76.4922514, 39.3143156], [-76.4919019, 39.3145045], [-76.4915512, 39.3147065], [-76.4912015, 39.3149368], [-76.4908958, 39.315163], [-76.4905913, 39.315428], [-76.4903089, 39.3157044], [-76.4899943, 39.3160553], [-76.4897353, 39.3163919], [-76.4893813, 39.3168743], [-76.488888, 39.317588], [-76.4884342, 39.3182748], [-76.4881703, 39.3186729], [-76.4879343, 39.3189879], [-76.4877698, 39.3191857], [-76.4874878, 39.319508]]}}, {"type": "Feature", "properties": {}, "geometry": {"type": "LineString", "coordinates": [[-76.4874878, 39.319508], [-76.4873177, 39.3196876], [-76.4870665, 39.3199407], [-76.4868003, 39.3202113], [-76.4865594, 39.3204358], [-76.4863134, 39.3206339], [-76.4860686, 39.3208125], [-76.485776, 39.3209911], [-76.4854682, 39.3211492], [-76.4852272, 39.3212605], [-76.4849396, 39.3213707], [-76.4846923, 39.3214556], [-76.484435, 39.3215308], [-76.4841209, 39.321602], [-76.4838509, 39.3216528], [-76.4835923, 39.3216889], [-76.4833147, 39.3217191], [-76.483084, 39.3217304], [-76.4821577, 39.3217571]]}}, {"type": "Feature", "properties": {}, "geometry": {"type": "LineString", "coordinates": [[-76.4821577, 39.3217571], [-76.481343, 39.3217923], [-76.4806466, 39.3218167], [-76.4803943, 39.3218333], [-76.4801534, 39.3218577], [-76.479862, 39.3219114], [-76.4795806, 39.3219885], [-76.4793157, 39.3220871], [-76.4791076, 39.3221856], [-76.478912, 39.3222871], [-76.4787518, 39.3223945], [-76.4786042, 39.3225028], [-76.4784541, 39.3226355], [-76.4783027, 39.3227946], [-76.478174, 39.3229488], [-76.4780529, 39.3231137], [-76.4779697, 39.3232484], [-76.4778763, 39.3234523], [-76.477812, 39.3236485], [-76.4777691, 39.3238154], [-76.4777451, 39.3240115], [-76.4777464, 39.3241921], [-76.4777565, 39.324358], [-76.477783, 39.3245151], [-76.4778397, 39.3246956], [-76.4779104, 39.3248674], [-76.4780113, 39.3250547], [-76.4781627, 39.3252743], [-76.4783544, 39.325487], [-76.4785184, 39.3256373], [-76.4786786, 39.3257583], [-76.4788363, 39.3258647], [-76.4789865, 39.3259496], [-76.4791732, 39.3260423], [-76.47938, 39.3261311], [-76.4795895, 39.3262072], [-76.4798292, 39.3262892], [-76.4803842, 39.3264892], [-76.4810062, 39.3267127], [-76.4811929, 39.3267839], [-76.4813871, 39.3268649], [-76.4817454, 39.3270435], [-76.4819775, 39.3271792], [-76.4822071, 39.3273255], [-76.4824456, 39.3274797], [-76.4826638, 39.327631], [-76.4827764, 39.327719], [-76.4828891, 39.3278069], [-76.4837153, 39.3285492]]}}, {"type": "Feature", "properties": {}, "geometry": {"type": "LineString", "coordinates": [[-76.4837153, 39.3285492], [-76.4838032, 39.3286281], [-76.4840035, 39.3288077], [-76.4842287, 39.3290274]]}}, {"type": "Feature", "properties": {}, "geometry": {"type": "LineString", "coordinates": [[-76.4842287, 39.3290274], [-76.4864458, 39.3311004], [-76.4868232, 39.3314585], [-76.4876124, 39.3322061], [-76.4878295, 39.3324222]]}}, {"type": "Feature", "properties": {}, "geometry": {"type": "LineString", "coordinates": [[-76.4878295, 39.3324222], [-76.4880277, 39.3326018], [-76.4881042, 39.3326757]]}}, {"type": "Feature", "properties": {}, "geometry": {"type": "LineString", "coordinates": [[-76.4881042, 39.3326757], [-76.488481, 39.33304], [-76.4906423, 39.3350975]]}}, {"type": "Feature", "properties": {}, "geometry": {"type": "LineString", "coordinates": [[-76.4906423, 39.3350975], [-76.4907485, 39.3352019], [-76.4917047, 39.3361108]]}}, {"type": "Feature", "properties": {}, "geometry": {"type": "LineString", "coordinates": [[-76.4917047, 39.3361108], [-76.4923026, 39.3366605], [-76.4927488, 39.3370938], [-76.4930019, 39.3373605], [-76.4930846, 39.337453], [-76.4931618, 39.3375462], [-76.4932352, 39.3376398], [-76.4934429, 39.3379317], [-76.4935668, 39.3381299], [-76.4936815, 39.3383296], [-76.4938327, 39.3386461], [-76.4938757, 39.3387492], [-76.4939177, 39.3388575], [-76.493957, 39.3389631], [-76.4940277, 39.3391783], [-76.4940841, 39.3393944], [-76.4941276, 39.3396136], [-76.4941468, 39.3397212], [-76.494162, 39.3398282], [-76.4941718, 39.339941], [-76.4941763, 39.3400514], [-76.4941767, 39.3402666], [-76.4941712, 39.3404476], [-76.4941445, 39.3406765], [-76.4941163, 39.3408288]]}}, {"type": "Feature", "properties": {}, "geometry": {"type": "LineString", "coordinates": [[-76.4941163, 39.3408288], [-76.4940607, 39.3412999], [-76.4940133, 39.3417013], [-76.4939477, 39.3422341], [-76.4938583, 39.3429825], [-76.4938041, 39.3434156], [-76.4937378, 39.3439605]]}}, {"type": "Feature", "properties": {}, "geometry": {"type": "LineString", "coordinates": [[-76.4937378, 39.3439605], [-76.4937205, 39.3442707], [-76.4937007, 39.3446221], [-76.4936623, 39.3453871], [-76.4936643, 39.3456], [-76.4936577, 39.3459783], [-76.4936537, 39.34626], [-76.4936637, 39.3464857], [-76.4936853, 39.3468098], [-76.4936937, 39.3469271], [-76.4937059, 39.3470739], [-76.4937184, 39.3471836], [-76.4937465, 39.3474118], [-76.4937794, 39.347631], [-76.493815, 39.347829], [-76.4938365, 39.3479439], [-76.4938565, 39.3480481], [-76.4938789, 39.3481542], [-76.4939048, 39.3482629], [-76.4939308, 39.3483705], [-76.4939582, 39.3484792], [-76.4939878, 39.3485845], [-76.4940181, 39.3486906], [-76.4940498, 39.3487981], [-76.494086, 39.3489066], [-76.4941209, 39.3490126], [-76.4941557, 39.3491181], [-76.4941922, 39.3492234], [-76.4942116, 39.3492754], [-76.4942309, 39.3493273], [-76.4942734, 39.3494379], [-76.4943149, 39.3495407], [-76.4943576, 39.3496434], [-76.4944022, 39.349748], [-76.4944471, 39.3498498], [-76.4944956, 39.3499553], [-76.4945952, 39.3501599], [-76.4946481, 39.3502597], [-76.4947002, 39.3503604], [-76.494758, 39.3504609], [-76.4947918, 39.3505193], [-76.4949211, 39.3507276], [-76.4950545, 39.350927], [-76.4951402, 39.3510525], [-76.4952057, 39.3511453], [-76.4952691, 39.3512347], [-76.4953379, 39.3513244], [-76.4954171, 39.3514194], [-76.4955021, 39.351518], [-76.4955578, 39.3515799], [-76.4956517, 39.3516849], [-76.4956871, 39.3517222], [-76.4958159, 39.3518592], [-76.4959031, 39.3519479], [-76.496004, 39.3520465], [-76.4961645, 39.3521951], [-76.496379, 39.3523854], [-76.4965312, 39.3525132], [-76.4968046, 39.3527345], [-76.497185, 39.3530412], [-76.4975353, 39.3533287], [-76.4979131, 39.3536361], [-76.4982088, 39.3538752], [-76.4985995, 39.3541979], [-76.4990639, 39.3545916], [-76.499531, 39.3550041], [-76.4998237, 39.3552639], [-76.5001365, 39.3555435], [-76.5006653, 39.3560404]]}}, {"type": "Feature", "properties": {}, "geometry": {"type": "LineString", "coordinates": [[-76.5006653, 39.3560404], [-76.501011, 39.356352], [-76.5012629, 39.3565898], [-76.5014407, 39.3567617], [-76.5015159, 39.3568366], [-76.5016953, 39.3570153], [-76.5020487, 39.3573631], [-76.5023971, 39.3577077], [-76.5026588, 39.3579701], [-76.5029949, 39.3583177], [-76.503115, 39.3584564], [-76.5032539, 39.3586425]]}}, {"type": "Feature", "properties": {}, "geometry": {"type": "LineString", "coordinates": [[-76.5032539, 39.3586425], [-76.5037692, 39.3592141]]}}, {"type": "Feature", "properties": {}, "geometry": {"type": "LineString", "coordinates": [[-76.5037692, 39.3592141], [-76.5044215, 39.3599815], [-76.5048282, 39.3604812], [-76.5052675, 39.3610461], [-76.5056382, 39.3615229], [-76.5057743, 39.3617022], [-76.5082217, 39.3649877], [-76.5086315, 39.3655503], [-76.5089157, 39.3659279], [-76.5092156, 39.3663027], [-76.5094412, 39.3665584], [-76.5097083, 39.3668427]]}}, {"type": "Feature", "properties": {}, "geometry": {"type": "LineString", "coordinates": [[-76.5097083, 39.3668427], [-76.5100166, 39.3671455], [-76.5103274, 39.3674351], [-76.5107588, 39.3677966], [-76.5111779, 39.3681258], [-76.5116294, 39.3684458], [-76.5121584, 39.3688117], [-76.5126897, 39.3691668], [-76.51329, 39.369553]]}}, {"type": "Feature", "properties": {}, "geometry": {"type": "LineString", "coordinates": [[-76.51329, 39.369553], [-76.5142219, 39.3702058]]}}, {"type": "Feature", "properties": {}, "geometry": {"type": "LineString", "coordinates": [[-76.5142219, 39.3702058], [-76.5144334, 39.3703471], [-76.5147821, 39.3706075], [-76.5150679, 39.3708212], [-76.515392, 39.371087], [-76.5157464, 39.3714049], [-76.5160314, 39.3716753], [-76.5163395, 39.3719955], [-76.5165818, 39.3722604], [-76.5168491, 39.3725864], [-76.517101, 39.3729155], [-76.5173446, 39.3732686], [-76.5175143, 39.3735317], [-76.5177239, 39.3738736], [-76.5179143, 39.3742295], [-76.5181156, 39.374657]]}}, {"type": "Feature", "properties": {}, "geometry": {"type": "LineString", "coordinates": [[-76.5181156, 39.374657], [-76.5183038, 39.3751218], [-76.518548, 39.3757964], [-76.5189508, 39.3771327], [-76.5192201, 39.3779888], [-76.5194168, 39.3786431], [-76.5196049, 39.3792449], [-76.5197661, 39.3797912], [-76.5199159, 39.38025], [-76.5201001, 39.3808115], [-76.5202668, 39.3812358], [-76.5204544, 39.381648], [-76.5206337, 39.3819664], [-76.520877, 39.382321], [-76.5210917, 39.3826024], [-76.5213064, 39.3828541], [-76.521565, 39.3831287], [-76.5219141, 39.3834713], [-76.5222748, 39.3838075], [-76.522698, 39.3841846], [-76.5230308, 39.3844666], [-76.5232985, 39.384673], [-76.5234903, 39.3848196], [-76.5237085, 39.3849788], [-76.5238926, 39.3851171], [-76.5240568, 39.3852406], [-76.5242626, 39.3853872], [-76.5246908, 39.3856799]]}}, {"type": "Feature", "properties": {}, "geometry": {"type": "LineString", "coordinates": [[-76.5246908, 39.3856799], [-76.5249126, 39.3858112], [-76.5254887, 39.3861535], [-76.5256858, 39.3862673], [-76.5259695, 39.3864287]]}}, {"type": "Feature", "properties": {}, "geometry": {"type": "LineString", "coordinates": [[-76.5259695, 39.3864287], [-76.5262797, 39.3865981], [-76.5268146, 39.3868809], [-76.5278476, 39.3873722], [-76.528937, 39.3878882], [-76.53008, 39.3883982]]}}, {"type": "Feature", "properties": {}, "geometry": {"type": "LineString", "coordinates": [[-76.53008, 39.3883982], [-76.5304965, 39.388591]]}}, {"type": "Feature", "properties": {}, "geometry": {"type": "LineString", "coordinates": [[-76.5304965, 39.388591], [-76.5321958, 39.3892448], [-76.5336912, 39.3897873], [-76.5342286, 39.3899773], [-76.5361457, 39.3906598]]}}, {"type": "Feature", "properties": {}, "geometry": {"type": "LineString", "coordinates": [[-76.5361457, 39.3906598], [-76.5364983, 39.3907754], [-76.5369662, 39.3909262], [-76.5374794, 39.3911067], [-76.5379738, 39.391281], [-76.5397412, 39.3918825], [-76.5402638, 39.3920692], [-76.5407716, 39.392275], [-76.541196, 39.3924694], [-76.5415961, 39.3926673], [-76.5420194, 39.3929125], [-76.5423971, 39.3931375], [-76.5450268, 39.3947997]]}}, {"type": "Feature", "properties": {}, "geometry": {"type": "LineString", "coordinates": [[-76.5450268, 39.3947997], [-76.5481095, 39.3967236]]}}, {"type": "Feature", "properties": {}, "geometry": {"type": "LineString", "coordinates": [[-76.5481095, 39.3967236], [-76.5485092, 39.3969812]]}}, {"type": "Feature", "properties": {}, "geometry": {"type": "LineString", "coordinates": [[-76.5485092, 39.3969812], [-76.5485702, 39.397013], [-76.5495002, 39.3975744], [-76.5499987, 39.3978682], [-76.5506878, 39.3982502], [-76.5519828, 39.3989356]]}}, {"type": "Feature", "properties": {}, "geometry": {"type": "LineString", "coordinates": [[-76.5519828, 39.3989356], [-76.5529739, 39.3994434], [-76.5534494, 39.3996892], [-76.556276, 39.401141], [-76.5566712, 39.4013338], [-76.5570317, 39.4014868], [-76.5574978, 39.4016612], [-76.5580756, 39.4018295], [-76.5584431, 39.4019114], [-76.5589456, 39.4019986], [-76.5593492, 39.4020455], [-76.5597812, 39.4020748], [-76.5601835, 39.4020847], [-76.5604866, 39.4020836], [-76.5608168, 39.4020666], [-76.5611397, 39.4020359], [-76.5615265, 39.4019853], [-76.5620513, 39.4018947], [-76.5635933, 39.4015719], [-76.5640189, 39.4014911], [-76.5644815, 39.4014173], [-76.5649084, 39.4013783], [-76.5653741, 39.4013563], [-76.565788, 39.4013626], [-76.5661063, 39.4013807], [-76.5661209, 39.4013814], [-76.5661811, 39.401385], [-76.5664188, 39.4014123], [-76.5667262, 39.4014601], [-76.5670722, 39.401523], [-76.5674047, 39.4016039], [-76.5677447, 39.4017044], [-76.5680382, 39.401805], [-76.5683978, 39.401947], [-76.5689292, 39.402201]]}}, {"type": "Feature", "properties": {}, "geometry": {"type": "LineString", "coordinates": [[-76.5689292, 39.402201], [-76.5694119, 39.40249], [-76.5697861, 39.4027418], [-76.5720288, 39.4043219]]}}, {"type": "Feature", "properties": {}, "geometry": {"type": "LineString", "coordinates": [[-76.5720288, 39.4043219], [-76.5778319, 39.4084173], [-76.5791508, 39.4093481]]}}, {"type": "Feature", "properties": {}, "geometry": {"type": "LineString", "coordinates": [[-76.5791508, 39.4093481], [-76.5822456, 39.411508]]}}, {"type": "Feature", "properties": {}, "geometry": {"type": "LineString", "coordinates": [[-76.5822456, 39.411508], [-76.5828098, 39.4119019], [-76.5833098, 39.4122218], [-76.5837837, 39.4124919], [-76.5843011, 39.4127611], [-76.5849053, 39.4130454], [-76.5852328, 39.4131868], [-76.585589, 39.413326], [-76.5860668, 39.4134992], [-76.5865996, 39.4136713], [-76.5871401, 39.4138234], [-76.587696, 39.4139617], [-76.5882429, 39.4140745], [-76.5889275, 39.4141906], [-76.5894048, 39.4142544], [-76.5899497, 39.4143103], [-76.5905958, 39.414352], [-76.5912279, 39.414368], [-76.5918823, 39.4143624], [-76.5924613, 39.4143383], [-76.5930347, 39.4142933], [-76.5935841, 39.4142271], [-76.5941168, 39.4141528], [-76.5944245, 39.4140949], [-76.594874, 39.4140103]]}}, {"type": "Feature", "properties": {}, "geometry": {"type": "LineString", "coordinates": [[-76.594874, 39.4140103], [-76.5966738, 39.413656], [-76.5972683, 39.4135265], [-76.5974919, 39.4134982], [-76.5977356, 39.4134904], [-76.5979642, 39.4134904], [-76.5981474, 39.4135148], [-76.5983255, 39.4135538], [-76.5984871, 39.4136124], [-76.5986299, 39.4136738], [-76.5987625, 39.4137548], [-76.598861, 39.4138368], [-76.5990075, 39.4139744]]}}, {"type": "Feature", "properties": {}, "geometry": {"type": "LineString", "coordinates": [[-76.5990075, 39.4139744], [-76.599125, 39.4140446], [-76.5992411, 39.4140827]]}}, {"type": "Feature", "properties": {}, "geometry": {"type": "LineString", "coordinates": [[-76.5992411, 39.4140827], [-76.599336, 39.414093], [-76.5994423, 39.4140881], [-76.5995768, 39.4140635]]}}, {"type": "Feature", "properties": {}, "geometry": {"type": "LineString", "coordinates": [[-76.5995768, 39.4140635], [-76.5997049, 39.4140274], [-76.5998151, 39.4140071]]}}, {"type": "Feature", "properties": {}, "geometry": {"type": "LineString", "coordinates": [[-76.5998151, 39.4140071], [-76.5999542, 39.4139925], [-76.6001052, 39.4139816]]}}, {"type": "Feature", "properties": {}, "geometry": {"type": "LineString", "coordinates": [[-76.6001052, 39.4139816], [-76.6003156, 39.4139665]]}}, {"type": "Feature", "properties": {}, "geometry": {"type": "LineString", "coordinates": [[-76.6003156, 39.4139665], [-76.6002763, 39.4141527], [-76.6002428, 39.414301], [-76.6002103, 39.4144287], [-76.6001547, 39.4146307]]}}, {"type": "Feature", "properties": {}, "geometry": {"type": "LineString", "coordinates": [[-76.6001547, 39.4146307], [-76.5999131, 39.4153695]]}}, {"type": "Feature", "properties": {}, "geometry": {"type": "LineString", "coordinates": [[-76.5999131, 39.4153695], [-76.5998751, 39.4154794]]}}, {"type": "Feature", "properties": {}, "geometry": {"type": "LineString", "coordinates": [[-76.5998751, 39.4154794], [-76.5997948, 39.4156954], [-76.5993053, 39.4170811], [-76.59892, 39.4182534]]}}, {"type": "Feature", "properties": {}, "geometry": {"type": "LineString", "coordinates": [[-76.59892, 39.4182534], [-76.5987393, 39.4188098]]}}, {"type": "Feature", "properties": {}, "geometry": {"type": "LineString", "coordinates": [[-76.5987393, 39.4188098], [-76.5986263, 39.4191554]]}}, {"type": "Feature", "properties": {}, "geometry": {"type": "LineString", "coordinates": [[-76.5986263, 39.4191554], [-76.5982882, 39.4201891], [-76.5981802, 39.4205295]]}}, {"type": "Feature", "properties": {}, "geometry": {"type": "LineString", "coordinates": [[-76.5981802, 39.4205295], [-76.5981668, 39.4205742]]}}, {"type": "Feature", "properties": {}, "geometry": {"type": "LineString", "coordinates": [[-76.5981668, 39.4205742], [-76.5980633, 39.4209185]]}}, {"type": "Feature", "properties": {}, "geometry": {"type": "LineString", "coordinates": [[-76.5980633, 39.4209185], [-76.5979647, 39.4212462], [-76.5979458, 39.4213171]]}}, {"type": "Feature", "properties": {}, "geometry": {"type": "LineString", "coordinates": [[-76.5979458, 39.4213171], [-76.5979029, 39.4214595]]}}, {"type": "Feature", "properties": {}, "geometry": {"type": "LineString", "coordinates": [[-76.5979029, 39.4214595], [-76.5975945, 39.4224819]]}}, {"type": "Feature", "properties": {}, "geometry": {"type": "LineString", "coordinates": [[-76.5975945, 39.4224819], [-76.5974024, 39.4230968]]}}, {"type": "Feature", "properties": {}, "geometry": {"type": "LineString", "coordinates": [[-76.5974024, 39.4230968], [-76.5973014, 39.423454]]}}, {"type": "Feature", "properties": {}, "geometry": {"type": "LineString", "coordinates": [[-76.5973014, 39.423454], [-76.5971715, 39.4238895], [-76.597012, 39.4244242]]}}, {"type": "Feature", "properties": {}, "geometry": {"type": "LineString", "coordinates": [[-76.597012, 39.4244242], [-76.5969778, 39.4245274]]}}, {"type": "Feature", "properties": {}, "geometry": {"type": "LineString", "coordinates": [[-76.5969778, 39.4245274], [-76.5968653, 39.4248666], [-76.5967944, 39.4250803], [-76.5967608, 39.4251708]]}}, {"type": "Feature", "properties": {}, "geometry": {"type": "LineString", "coordinates": [[-76.5967608, 39.4251708], [-76.5966905, 39.4253605], [-76.5966316, 39.4255036], [-76.5965907, 39.4256028]]}}, {"type": "Feature", "properties": {}, "geometry": {"type": "LineString", "coordinates": [[-76.5965907, 39.4256028], [-76.5964864, 39.4258561]]}}, {"type": "Feature", "properties": {}, "geometry": {"type": "LineString", "coordinates": [[-76.5964864, 39.4258561], [-76.596651, 39.425906]]}}, {"type": "Feature", "properties": {}, "geometry": {"type": "LineString", "coordinates": [[-76.596651, 39.425906], [-76.5968049, 39.4259544], [-76.59689, 39.4259886]]}}, {"type": "Feature", "properties": {}, "geometry": {"type": "LineString", "coordinates": [[-76.59689, 39.4259886], [-76.596943, 39.426015], [-76.596994, 39.426047], [-76.5970412, 39.4260836]]}}, {"type": "Feature", "properties": {}, "geometry": {"type": "LineString", "coordinates": [[-76.5970412, 39.4260836], [-76.5970799, 39.4261174], [-76.5971299, 39.4261637], [-76.5977054, 39.4267479]]}}, {"type": "Feature", "properties": {}, "geometry": {"type": "LineString", "coordinates": [[-76.5977054, 39.4267479], [-76.597867, 39.426912]]}}, {"type": "Feature", "properties": {}, "geometry": {"type": "LineString", "coordinates": [[-76.597867, 39.426912], [-76.598327, 39.427379]]}}, {"type": "Feature", "properties": {}, "geometry": {"type": "LineString", "coordinates": [[-76.598327, 39.427379], [-76.5991867, 39.4282411]]}}, {"type": "Feature", "properties": {}, "geometry": {"type": "LineString", "coordinates": [[-76.5991867, 39.4282411], [-76.5993185, 39.4283695], [-76.5994125, 39.4284558]]}}, {"type": "Feature", "properties": {}, "geometry": {"type": "LineString", "coordinates": [[-76.5994125, 39.4284558], [-76.5994625, 39.4284967]]}}, {"type": "Feature", "properties": {}, "geometry": {"type": "LineString", "coordinates": [[-76.5994625, 39.4284967], [-76.5995361, 39.4285574], [-76.5996161, 39.4286164], [-76.5997133, 39.4286863], [-76.5998242, 39.4287643], [-76.5999229, 39.4288291], [-76.6000288, 39.4288954], [-76.6001178, 39.4289476], [-76.6002109, 39.4289974]]}}, {"type": "Feature", "properties": {}, "geometry": {"type": "LineString", "coordinates": [[-76.6002109, 39.4289974], [-76.6002377, 39.4290119]]}}, {"type": "Feature", "properties": {}, "geometry": {"type": "LineString", "coordinates": [[-76.6002377, 39.4290119], [-76.6004691, 39.429126], [-76.6005896, 39.4291818]]}}, {"type": "Feature", "properties": {}, "geometry": {"type": "LineString", "coordinates": [[-76.6005896, 39.4291818], [-76.6007185, 39.4292358], [-76.6008579, 39.4292901]]}}, {"type": "Feature", "properties": {}, "geometry": {"type": "LineString", "coordinates": [[-76.6008579, 39.4292901], [-76.601012, 39.4293443], [-76.6013474, 39.429455]]}}, {"type": "Feature", "properties": {}, "geometry": {"type": "LineString", "coordinates": [[-76.6013474, 39.429455], [-76.6015645, 39.4295266]]}}, {"type": "Feature", "properties": {}, "geometry": {"type": "LineString", "coordinates": [[-76.6015645, 39.4295266], [-76.6017764, 39.429597]]}}, {"type": "Feature", "properties": {}, "geometry": {"type": "LineString", "coordinates": [[-76.6017764, 39.429597], [-76.6024912, 39.4298322], [-76.6026897, 39.4299016]]}}, {"type": "Feature", "properties": {}, "geometry": {"type": "LineString", "coordinates": [[-76.6026897, 39.4299016], [-76.6028283, 39.4299599], [-76.6029568, 39.43002], [-76.6030748, 39.4300801], [-76.603186, 39.4301447], [-76.603307, 39.4302217], [-76.6034125, 39.4303026], [-76.6034963, 39.4303703]]}}, {"type": "Feature", "properties": {}, "geometry": {"type": "LineString", "coordinates": [[-76.6034963, 39.4303703], [-76.6035793, 39.4304416]]}}, {"type": "Feature", "properties": {}, "geometry": {"type": "LineString", "coordinates": [[-76.6035793, 39.4304416], [-76.603603, 39.430462]]}}, {"type": "Feature", "properties": {}, "geometry": {"type": "LineString", "coordinates": [[-76.603603, 39.430462], [-76.6036748, 39.4305339], [-76.6037423, 39.4306118], [-76.6038029, 39.430686], [-76.603855, 39.4307568], [-76.6039109, 39.4308383], [-76.6042737, 39.4314112]]}}, {"type": "Feature", "properties": {}, "geometry": {"type": "LineString", "coordinates": [[-76.6042737, 39.4314112], [-76.6042945, 39.431444]]}}, {"type": "Feature", "properties": {}, "geometry": {"type": "LineString", "coordinates": [[-76.6042945, 39.431444], [-76.6044714, 39.4317234], [-76.6046487, 39.4320069]]}}, {"type": "Feature", "properties": {}, "geometry": {"type": "LineString", "coordinates": [[-76.6046487, 39.4320069], [-76.6047071, 39.4321003]]}}, {"type": "Feature", "properties": {}, "geometry": {"type": "LineString", "coordinates": [[-76.6047071, 39.4321003], [-76.6047698, 39.432254], [-76.6048372, 39.4324252], [-76.6048808, 39.4325506]]}}, {"type": "Feature", "properties": {}, "geometry": {"type": "LineString", "coordinates": [[-76.6048808, 39.4325506], [-76.6049109, 39.4326826], [-76.6049341, 39.4328246], [-76.6049776, 39.4332919]]}}, {"type": "Feature", "properties": {}, "geometry": {"type": "LineString", "coordinates": [[-76.6049776, 39.4332919], [-76.6050527, 39.4341701]]}}, {"type": "Feature", "properties": {}, "geometry": {"type": "LineString", "coordinates": [[-76.6050527, 39.4341701], [-76.6050889, 39.4345939]]}}, {"type": "Feature", "properties": {}, "geometry": {"type": "LineString", "coordinates": [[-76.6050889, 39.4345939], [-76.6051142, 39.4348689]]}}, {"type": "Feature", "properties": {}, "geometry": {"type": "LineString", "coordinates": [[-76.6051142, 39.4348689], [-76.605148, 39.4352372], [-76.605156, 39.4354795], [-76.6051506, 39.4356929], [-76.6051238, 39.435957], [-76.6050889, 39.4361746]]}}, {"type": "Feature", "properties": {}, "geometry": {"type": "LineString", "coordinates": [[-76.6050889, 39.4361746], [-76.604979, 39.4368602]]}}, {"type": "Feature", "properties": {}, "geometry": {"type": "LineString", "coordinates": [[-76.604979, 39.4368602], [-76.6049723, 39.4370394], [-76.6049843, 39.437202], [-76.6050192, 39.4374092]]}}, {"type": "Feature", "properties": {}, "geometry": {"type": "LineString", "coordinates": [[-76.6050192, 39.4374092], [-76.605093, 39.4376215], [-76.6051549, 39.4377694]]}}, {"type": "Feature", "properties": {}, "geometry": {"type": "LineString", "coordinates": [[-76.6051549, 39.4377694], [-76.6052807, 39.43807], [-76.605337, 39.4382523], [-76.6053466, 39.4382986], [-76.6053644, 39.4383845], [-76.6054301, 39.4387021]]}}, {"type": "Feature", "properties": {}, "geometry": {"type": "LineString", "coordinates": [[-76.6054301, 39.4387021], [-76.6054818, 39.4389514]]}}, {"type": "Feature", "properties": {}, "geometry": {"type": "LineString", "coordinates": [[-76.6054818, 39.4389514], [-76.605494, 39.4390104], [-76.6055008, 39.4390436]]}}, {"type": "Feature", "properties": {}, "geometry": {"type": "LineString", "coordinates": [[-76.6055008, 39.4390436], [-76.6055653, 39.4393676], [-76.6055805, 39.4394415], [-76.6057662, 39.4403476]]}}, {"type": "Feature", "properties": {}, "geometry": {"type": "LineString", "coordinates": [[-76.6057662, 39.4403476], [-76.6057935, 39.4404803]]}}, {"type": "Feature", "properties": {}, "geometry": {"type": "LineString", "coordinates": [[-76.6057935, 39.4404803], [-76.605958, 39.4412787]]}}, {"type": "Feature", "properties": {}, "geometry": {"type": "LineString", "coordinates": [[-76.605958, 39.4412787], [-76.6062329, 39.4426261]]}}, {"type": "Feature", "properties": {}, "geometry": {"type": "LineString", "coordinates": [[-76.6062329, 39.4426261], [-76.6063188, 39.4430475]]}}, {"type": "Feature", "properties": {}, "geometry": {"type": "LineString", "coordinates": [[-76.6063188, 39.4430475], [-76.6067828, 39.445325], [-76.606992, 39.4463182]]}}, {"type": "Feature", "properties": {}, "geometry": {"type": "LineString", "coordinates": [[-76.606992, 39.4463182], [-76.6070079, 39.4463967]]}}, {"type": "Feature", "properties": {}, "geometry": {"type": "LineString", "coordinates": [[-76.6070079, 39.4463967], [-76.6072951, 39.4478166]]}}, {"type": "Feature", "properties": {}, "geometry": {"type": "LineString", "coordinates": [[-76.6072951, 39.4478166], [-76.6073259, 39.4480964], [-76.6073527, 39.4484071], [-76.6073661, 39.4486918], [-76.6073688, 39.4490212]]}}, {"type": "Feature", "properties": {}, "geometry": {"type": "LineString", "coordinates": [[-76.6073688, 39.4490212], [-76.6073648, 39.4492707], [-76.6073474, 39.4494602], [-76.6073393, 39.4496083]]}}, {"type": "Feature", "properties": {}, "geometry": {"type": "LineString", "coordinates": [[-76.6073393, 39.4496083], [-76.6073205, 39.4498279], [-76.6072924, 39.4501116], [-76.6072756, 39.4502293]]}}, {"type": "Feature", "properties": {}, "geometry": {"type": "LineString", "coordinates": [[-76.6072756, 39.4502293], [-76.6072682, 39.4502815], [-76.6072361, 39.4504627], [-76.6071864, 39.4506325]]}}, {"type": "Feature", "properties": {}, "geometry": {"type": "LineString", "coordinates": [[-76.6071864, 39.4506325], [-76.60711, 39.4508148], [-76.6070242, 39.4509867], [-76.6068968, 39.4512104]]}}, {"type": "Feature", "properties": {}, "geometry": {"type": "LineString", "coordinates": [[-76.6068968, 39.4512104], [-76.6068243, 39.4513212]]}}, {"type": "Feature", "properties": {}, "geometry": {"type": "LineString", "coordinates": [[-76.6068243, 39.4513212], [-76.6066473, 39.4515914]]}}, {"type": "Feature", "properties": {}, "geometry": {"type": "LineString", "coordinates": [[-76.6066473, 39.4515914], [-76.6061564, 39.4523226]]}}, {"type": "Feature", "properties": {}, "geometry": {"type": "LineString", "coordinates": [[-76.6061564, 39.4523226], [-76.6062264, 39.4523575]]}}, {"type": "Feature", "properties": {}, "geometry": {"type": "LineString", "coordinates": [[-76.6062264, 39.4523575], [-76.6061979, 39.4524014], [-76.6053962, 39.453514], [-76.6054574, 39.4535424], [-76.6054407, 39.4535664], [-76.605414, 39.453601]]}}, {"type": "Feature", "properties": {}, "geometry": {"type": "LineString", "coordinates": [[-76.605414, 39.453601], [-76.6053896, 39.4536325], [-76.605364, 39.4536668], [-76.6053374, 39.4537056]]}}, {"type": "Feature", "properties": {}, "geometry": {"type": "LineString", "coordinates": [[-76.6053374, 39.4537056], [-76.6058921, 39.4539378], [-76.6060302, 39.4540061], [-76.6061576, 39.4540744], [-76.6061906, 39.4540993], [-76.6062662, 39.4541563], [-76.6063708, 39.4542526], [-76.6064567, 39.4543302], [-76.6065494, 39.4544152]]}}, {"type": "Feature", "properties": {}, "geometry": {"type": "LineString", "coordinates": [[-76.6065494, 39.4544152], [-76.6066176, 39.4545736], [-76.6066659, 39.4547092], [-76.6066847, 39.4548832], [-76.606678, 39.4550281], [-76.6066565, 39.4551742], [-76.6066189, 39.4552798], [-76.6065628, 39.4554165]]}}, {"type": "Feature", "properties": {}, "geometry": {"type": "LineString", "coordinates": [[-76.6065628, 39.4554165], [-76.60623, 39.4562231], [-76.606163, 39.456396], [-76.6061227, 39.4565576]]}}, {"type": "Feature", "properties": {}, "geometry": {"type": "LineString", "coordinates": [[-76.6061227, 39.4565576], [-76.6061053, 39.4567067], [-76.606112, 39.4568868], [-76.6061321, 39.4570235], [-76.6061911, 39.4572109], [-76.6062729, 39.4573745], [-76.6063802, 39.4575309], [-76.6068966, 39.4581739], [-76.6074933, 39.4589132]]}}, {"type": "Feature", "properties": {}, "geometry": {"type": "LineString", "coordinates": [[-76.6074933, 39.4589132], [-76.6078031, 39.4592953], [-76.6079077, 39.4594216], [-76.6079949, 39.4595511], [-76.6080512, 39.4596691], [-76.6080621, 39.4597024]]}}, {"type": "Feature", "properties": {}, "geometry": {"type": "LineString", "coordinates": [[-76.6080621, 39.4597024], [-76.6080792, 39.4597551]]}}, {"type": "Feature", "properties": {}, "geometry": {"type": "LineString", "coordinates": [[-76.6080792, 39.4597551], [-76.6080995, 39.4599041], [-76.6080901, 39.4600563], [-76.6080472, 39.4602199], [-76.6079981, 39.4603807], [-76.6079225, 39.4606279], [-76.6076422, 39.4615743]]}}, {"type": "Feature", "properties": {}, "geometry": {"type": "LineString", "coordinates": [[-76.6076422, 39.4615743], [-76.6076087, 39.4617461], [-76.6075979, 39.4619139], [-76.6075966, 39.4620764]]}}, {"type": "Feature", "properties": {}, "geometry": {"type": "LineString", "coordinates": [[-76.6075966, 39.4620764], [-76.6076248, 39.4622752], [-76.6076677, 39.4624688], [-76.6077535, 39.462678], [-76.6078715, 39.4628933], [-76.608003, 39.4630756]]}}, {"type": "Feature", "properties": {}, "geometry": {"type": "LineString", "coordinates": [[-76.608003, 39.4630756], [-76.6081572, 39.4632433], [-76.6085394, 39.4635839], [-76.6086916, 39.463722]]}}, {"type": "Feature", "properties": {}, "geometry": {"type": "LineString", "coordinates": [[-76.6086916, 39.463722], [-76.607477, 39.4643161], [-76.6073818, 39.4643689], [-76.6073175, 39.4644413], [-76.6072853, 39.4645148]]}}, {"type": "Feature", "properties": {}, "geometry": {"type": "LineString", "coordinates": [[-76.6072853, 39.4645148], [-76.6072879, 39.4646236], [-76.6073121, 39.4647405], [-76.6073456, 39.4648286]]}}, {"type": "Feature", "properties": {}, "geometry": {"type": "LineString", "coordinates": [[-76.6073456, 39.4648286], [-76.6074006, 39.464901], [-76.607638, 39.4651961]]}}, {"type": "Feature", "properties": {}, "geometry": {"type": "LineString", "coordinates": [[-76.607638, 39.4651961], [-76.6077915, 39.465401]]}}, {"type": "Feature", "properties": {}, "geometry": {"type": "LineString", "coordinates": [[-76.6077915, 39.465401], [-76.6071034, 39.4657325], [-76.6068476, 39.4658478], [-76.6066098, 39.465949]]}}, {"type": "Feature", "properties": {}, "geometry": {"type": "LineString", "coordinates": [[-76.6066098, 39.465949], [-76.6065939, 39.4659557], [-76.6062896, 39.4660702], [-76.6061644, 39.4661146], [-76.6060391, 39.466159], [-76.6058327, 39.4662246]]}}, {"type": "Feature", "properties": {}, "geometry": {"type": "LineString", "coordinates": [[-76.6058327, 39.4662246], [-76.60597, 39.4664647]]}}, {"type": "Feature", "properties": {}, "geometry": {"type": "LineString", "coordinates": [[-76.60597, 39.4664647], [-76.606088, 39.4666552], [-76.6062342, 39.4668498], [-76.6063563, 39.467002], [-76.6064703, 39.4671397], [-76.6065735, 39.4672795], [-76.6066245, 39.4673892], [-76.6066433, 39.4674979], [-76.6066379, 39.4676677], [-76.6066392, 39.4677981]]}}, {"type": "Feature", "properties": {}, "geometry": {"type": "LineString", "coordinates": [[-76.6066392, 39.4677981], [-76.6066285, 39.4680259], [-76.6066017, 39.4682516], [-76.6065775, 39.4684701]]}}, {"type": "Feature", "properties": {}, "geometry": {"type": "LineString", "coordinates": [[-76.6065775, 39.4684701], [-76.6067666, 39.4685042], [-76.6070912, 39.468821], [-76.6071448, 39.4688862], [-76.607177, 39.4689587], [-76.6071851, 39.4690374], [-76.6069651, 39.4696358], [-76.6069249, 39.4696989], [-76.6064944, 39.4701545], [-76.6064394, 39.4702373], [-76.6064314, 39.4703118], [-76.6064408, 39.4703833], [-76.6064622, 39.4704381], [-76.6065118, 39.4704982]]}}, {"type": "Feature", "properties": {}, "geometry": {"type": "LineString", "coordinates": [[-76.6065118, 39.4704982], [-76.6064273, 39.4705551], [-76.6062988, 39.4706923]]}}]}